[{"OBJECT_NAME":"STARLINK-6164","OBJECT_ID":"2023-090BD","EPOCH":"2026-03-09T22:00:01.999584","MEAN_MOTION":15.07245521,"ECCENTRICITY":0.00010687,"INCLINATION":43.001,"RA_OF_ASC_NODE":260.3189,"ARG_OF_PERICENTER":306.1074,"MEAN_ANOMALY":222.0716,"EPHEMERIS_TYPE":0,"CLASSIFICATION_TYPE":"U","NORAD_CAT_ID":57152,"ELEMENT_SET_NO":999,"REV_AT_EPOCH":577,"BSTAR":0.0048595736,"MEAN_MOTION_DOT":0.00075076,"MEAN_MOTION_DDOT":0},{"OBJECT_NAME":"DISKSAT D","OBJECT_ID":"2025-305C","EPOCH":"2026-03-09T13:15:42.202656","MEAN_MOTION":15.07416577,"ECCENTRICITY":0.00037124,"INCLINATION":45.0023,"RA_OF_ASC_NODE":251.6339,"ARG_OF_PERICENTER":319.2749,"MEAN_ANOMALY":40.7848,"EPHEMERIS_TYPE":0,"CLASSIFICATION_TYPE":"U","NORAD_CAT_ID":67221,"ELEMENT_SET_NO":999,"REV_AT_EPOCH":1227,"BSTAR":0.00076840651,"MEAN_MOTION_DOT":0.00011599,"MEAN_MOTION_DDOT":0}]
